[{"OBJECT_NAME":"STARLINK-34735","OBJECT_ID":"2025-165S","EPOCH":"2026-03-09T18:25:19.548768","MEAN_MOTION":15.05649683,"ECCENTRICITY":6.511e-5,"INCLINATION":97.6029,"RA_OF_ASC_NODE":147.3265,"ARG_OF_PERICENTER":183.845,"MEAN_ANOMALY":176.2772,"EPHEMERIS_TYPE":0,"CLASSIFICATION_TYPE":"U","NORAD_CAT_ID":65072,"ELEMENT_SET_NO":999,"REV_AT_EPOCH":3480,"BSTAR":0.00053399856,"MEAN_MOTION_DOT":7.652e-5,"MEAN_MOTION_DDOT":0},{"OBJECT_NAME":"COSMOS 397 DEB","OBJECT_ID":"1971-015N","EPOCH":"2026-03-09T21:59:22.745472","MEAN_MOTION":14.31890042,"ECCENTRICITY":0.0375916,"INCLINATION":65.6812,"RA_OF_ASC_NODE":51.6354,"ARG_OF_PERICENTER":68.3492,"MEAN_ANOMALY":295.7191,"EPHEMERIS_TYPE":0,"CLASSIFICATION_TYPE":"U","NORAD_CAT_ID":5019,"ELEMENT_SET_NO":999,"REV_AT_EPOCH":69800,"BSTAR":0.0019195844,"MEAN_MOTION_DOT":0.0001123,"MEAN_MOTION_DDOT":0}]
